GLOBALSTAR M067         
1 32263U 07048A   24230.12942134 -.00000046  00000+0  38203-3 0  9991
2 32263  51.9703 205.6169 0001064  50.0837  31.4609 12.40652684771743
GLOBALSTAR M070         
1 32264U 07048B   24230.22693167 -.00000059  00000+0  24919-3 0  9995
2 32264  51.9774 334.4779 0000934 123.2313 250.0815 12.62297579775280
GLOBALSTAR M066         
1 32265U 07048C   24230.22536064 -.00000084  00000+0  11057-3 0  9995
2 32265  51.9656 197.1035 0001299 264.8683 197.6547 12.58439838778479
GLOBALSTAR M068         
1 32266U 07048D   24231.18850977 -.00000078  00000+0  14405-3 0  9997
2 32266  51.9878 145.8795 0000584 153.3130  11.7955 12.62796782779563
GLOBALSTAR M079         
1 37188U 10054A   24230.25706122 -.00000073  00000+0  17019-3 0  9994
2 37188  52.0066 344.9996 0000623  84.2309 283.9467 12.62262699638077
GLOBALSTAR M074         
1 37189U 10054B   24231.23287748 -.00000081  00000+0  12565-3 0  9992
2 37189  52.0043 341.3982 0000709 106.9215 257.8620 12.62271322638874
GLOBALSTAR M076         
1 37190U 10054C   24230.89793958 -.00000087  00000+0  91176-4 0  9992
2 37190  52.0055 342.5639 0000982  83.6544  76.7975 12.62255265638835
GLOBALSTAR M077         
1 37191U 10054D   24230.22346424 -.00000062  00000+0  23506-3 0  9996
2 37191  52.0079 301.3861 0000552 119.1834 275.8661 12.62262544638766
